PROBA-1                 
1 26958U 01049B   22277.48726722  .00003994  00000+0  33833-3 0  9999
2 26958  97.8341 237.4208 0070706 341.4888  18.3762 14.96642811140785
BIRD 2                  
1 26959U 01049C   22277.54035118  .00027630  00000+0  54755-3 0  9998
2 26959  97.7624  16.8918 0005766 349.3148  10.7977 15.47009996163794
CUTE-1 (CO-55)          
1 27844U 03031E   22276.74954507  .00000395  00000+0  19669-3 0  9992
2 27844  98.6813 282.8137 0010478 143.1977 216.9922 14.22503909999301
CUBESAT XI-IV (CO-57)   
1 27848U 03031J   22276.67611709  .00000314  00000+0  16179-3 0  9996
2 27848  98.6856 283.2373 0010132 157.1040 203.0591 14.22053804999068
GENESIS 1               
1 29252U 06029A   22276.88053397  .00010682  00000+0  46243-3 0  9997
2 29252  64.5217  74.8315 0054872 245.7998 113.7386 15.21476396895538
FALCONSAT-3             
1 30776U 07006E   22277.37592803  .00110458  00000+0  11877-2 0  9997
2 30776  35.4283 262.6375 0002983 232.6435 127.4028 15.62421477866573
GENESIS 2               
1 31789U 07028A   22276.76878631  .00007393  00000+0  33326-3 0  9991
2 31789  64.4954 118.6530 0056281 298.4519  61.0941 15.20362873842367
APRIZESAT 4             
1 35684U 09041D   22277.03887585  .00001041  00000+0  14366-3 0  9992
2 35684  98.3094 294.4015 0046834   5.0842 355.0834 14.79754208711172
APRIZESAT 3             
1 35686U 09041F   22277.50439733  .00002060  00000+0  22015-3 0  9996
2 35686  98.1042   6.5952 0071691 188.9528 171.0415 14.88095342714876
PROBA-2                 
1 36037U 09059B   22277.07584918  .00000339  00000+0  92147-4 0  9995
2 36037  98.2247 101.6398 0014286 130.6575 229.5866 14.53299773685129
APRIZESAT 5             
1 37792U 11044E   22277.59383671  .00001168  00000+0  17375-3 0  9991
2 37792  98.3068 156.1437 0058148  17.6569 342.6643 14.75865516599235
APRIZESAT 6             
1 37793U 11044F   22277.55392953  .00000880  00000+0  14355-3 0  9996
2 37793  98.3873 133.2654 0047782  70.2166 346.1579 14.72874349598076
TET-1                   
1 38710U 12039D   22276.99650452  .00212555  00000+0  85061-3 0  9995
2 38710  97.5011   6.7162 0001014 246.4404 113.6759 15.85987945574511
PROBA-V                 
1 39159U 13021A   22277.56031295  .00000070  00000+0  49091-4 0  9998
2 39159  98.3487 307.9118 0005157 123.6869 236.4803 14.23050788488846
STPSAT-3                
1 39380U 13064A   22277.19913638  .00058309  00000+0  10014-2 0  9999
2 39380  40.4984 100.9487 0008563   0.5382 359.5445 15.50195942497807
APRIZESAT 7             
1 39416U 13066A   22277.47715419  .00001837  00000+0  22040-3 0  9996
2 39416  97.5851 252.2265 0040714   1.1838 358.9466 14.84614744480243
APRIZESAT 8             
1 39425U 13066K   22276.90885685  .00001566  00000+0  20044-3 0  9997
2 39425  97.6402 243.2901 0052547  46.5847 313.9722 14.81743974479297
BUGSAT-1 (TITA)         
1 40014U 14033E   22276.96111248  .00003135  00000+0  27480-3 0  9996
2 40014  98.1461 279.8451 0031550  40.7533 319.6040 14.97085022452374
SAUDISAT 4              
1 40016U 14033G   22276.79663833  .00000867  00000+0  13164-3 0  9994
2 40016  97.6393 105.6873 0048724 148.4293 211.9857 14.75642647446379
APRIZESAT 9             
1 40018U 14033J   22277.42651947  .00001076  00000+0  17939-3 0  9997
2 40018  97.7263  82.2317 0070012 222.8807 136.6929 14.70349618444798
APRIZESAT 10            
1 40019U 14033K   22277.39577310  .00000834  00000+0  14881-3 0  9999
2 40019  97.7827  72.0895 0082463 268.7256  90.4501 14.67381709443956
TDS 1                   
1 40076U 14037H   22276.66406932  .00003953  00000+0  45871-3 0  9994
2 40076  98.3732 155.3058 0008203  81.5448 278.6695 14.86015413445774
TIANTUO 2               
1 40144U 14053B   22277.39824709  .00007967  00000+0  20805-3 0  9994
2 40144  97.1865 355.2070 0011050 158.2509 331.8739 15.38996315451846
TECHNOSAT               
1 42829U 17042E   22277.53712415  .00002523  00000+0  25291-3 0  9990
2 42829  97.4086 125.2621 0014220   8.7942 351.3524 14.92101682284358
FLYING LAPTOP           
1 42831U 17042G   22276.71640301  .00000990  00000+0  10272-3 0  9995
2 42831  97.4103 124.8261 0014082  11.6409 348.5149 14.91961113284233
HAWK-A                  
1 43765U 18099H   22277.07802648  .00004039  00000+0  35186-3 0  9998
2 43765  97.6096 342.3007 0012642 266.3498  93.6279 14.97394825209397
HAWK-B                  
1 43794U 18099AN  22277.14523107  .00003884  00000+0  33849-3 0  9999
2 43794  97.6096 342.3661 0012734 266.2283  93.7483 14.97395324209391
HAWK-C                  
1 43799U 18099AT  22277.34550833  .00004022  00000+0  35034-3 0  9995
2 43799  97.6096 342.4682 0012624 265.4790  94.4990 14.97398286209427
SALSAT                  
1 46495U 20068K   22276.82379358  .00004590  00000+0  32762-3 0  9998
2 46495  97.7366 218.2221 0014273 270.8067  89.1524 15.04953991110482
